[{"OBJECT_NAME":"TIANMU-1 08","OBJECT_ID":"2023-101B","EPOCH":"2026-03-07T00:03:25.475616","MEAN_MOTION":15.29204229,"ECCENTRICITY":0.00063808,"INCLINATION":97.2717,"RA_OF_ASC_NODE":118.7901,"ARG_OF_PERICENTER":134.2174,"MEAN_ANOMALY":225.9592,"EPHEMERIS_TYPE":0,"CLASSIFICATION_TYPE":"U","NORAD_CAT_ID":57400,"ELEMENT_SET_NO":999,"REV_AT_EPOCH":14602,"BSTAR":1.4774513e-5,"MEAN_MOTION_DOT":3.46e-6,"MEAN_MOTION_DDOT":0},{"OBJECT_NAME":"STARLINK-30932","OBJECT_ID":"2023-191R","EPOCH":"2026-03-09T10:09:55.485504","MEAN_MOTION":15.27240316,"ECCENTRICITY":9.319e-5,"INCLINATION":42.9994,"RA_OF_ASC_NODE":104.6731,"ARG_OF_PERICENTER":208.9228,"MEAN_ANOMALY":151.1572,"EPHEMERIS_TYPE":0,"CLASSIFICATION_TYPE":"U","NORAD_CAT_ID":58523,"ELEMENT_SET_NO":999,"REV_AT_EPOCH":12538,"BSTAR":0.0042662008,"MEAN_MOTION_DOT":0.00117798,"MEAN_MOTION_DDOT":0}]
